{"type":"Topology","objects":{"municipios":{"geometries":[{"properties":{"id":"SANDONA","nombre":"SANDONÁ","divipola":"52683","departamento":"Nariño"},"type":"Polygon","arcs":[[0]],"id":"SANDONA"},{"properties":{"id":"SAN BERNARDO","nombre":"SAN BERNARDO","divipola":"52685","departamento":"Nariño"},"type":"Polygon","arcs":[[1]],"id":"SAN BERNARDO"},{"properties":{"id":"SAN LORENZO","nombre":"SAN LORENZO","divipola":"52687","departamento":"Nariño"},"type":"Polygon","arcs":[[2]],"id":"SAN LORENZO"},{"properties":{"id":"POTOSI","nombre":"POTOSÍ","divipola":"52560","departamento":"Nariño"},"type":"Polygon","arcs":[[3]],"id":"POTOSI"},{"properties":{"id":"SAN PABLO","nombre":"SAN PABLO","divipola":"52693","departamento":"Nariño"},"type":"Polygon","arcs":[[4]],"id":"SAN PABLO"},{"properties":{"id":"PROVIDENCIA","nombre":"PROVIDENCIA","divipola":"52565","departamento":"Nariño"},"type":"Polygon","arcs":[[5]],"id":"PROVIDENCIA"},{"properties":{"id":"SAN PEDRO DE CARTAGO","nombre":"SAN PEDRO DE CARTAGO","divipola":"52694","departamento":"Nariño"},"type":"Polygon","arcs":[[6]],"id":"SAN PEDRO DE CARTAGO"},{"properties":{"id":"PUERRES","nombre":"PUERRES","divipola":"52573","departamento":"Nariño"},"type":"Polygon","arcs":[[7]],"id":"PUERRES"},{"properties":{"id":"SANTACRUZ","nombre":"SANTACRUZ","divipola":"52699","departamento":"Nariño"},"type":"Polygon","arcs":[[8]],"id":"SANTACRUZ"},{"properties":{"id":"PUPIALES","nombre":"PUPIALES","divipola":"52585","departamento":"Nariño"},"type":"Polygon","arcs":[[9]],"id":"PUPIALES"},{"properties":{"id":"SAMANIEGO","nombre":"SAMANIEGO","divipola":"52678","departamento":"Nariño"},"type":"Polygon","arcs":[[10]],"id":"SAMANIEGO"},{"properties":{"id":"CONSACA","nombre":"CONSACÁ","divipola":"52207","departamento":"Nariño"},"type":"Polygon","arcs":[[11]],"id":"CONSACA"},{"properties":{"id":"CONTADERO","nombre":"CONTADERO","divipola":"52210","departamento":"Nariño"},"type":"Polygon","arcs":[[12]],"id":"CONTADERO"},{"properties":{"id":"CORDOBA","nombre":"CÓRDOBA","divipola":"52215","departamento":"Nariño"},"type":"Polygon","arcs":[[13]],"id":"CORDOBA"},{"properties":{"id":"PASTO","nombre":"PASTO","divipola":"52001","departamento":"Nariño"},"type":"Polygon","arcs":[[14]],"id":"PASTO"},{"properties":{"id":"ALBAN","nombre":"ALBÁN","divipola":"52019","departamento":"Nariño"},"type":"Polygon","arcs":[[15]],"id":"ALBAN"},{"properties":{"id":"ALDANA","nombre":"ALDANA","divipola":"52022","departamento":"Nariño"},"type":"Polygon","arcs":[[16]],"id":"ALDANA"},{"properties":{"id":"CUASPUD CARLOSAMA","nombre":"CUASPUD CARLOSAMA","divipola":"52224","departamento":"Nariño"},"type":"Polygon","arcs":[[17]],"id":"CUASPUD CARLOSAMA"},{"properties":{"id":"ANCUYA","nombre":"ANCUYA","divipola":"52036","departamento":"Nariño"},"type":"Polygon","arcs":[[18]],"id":"ANCUYA"},{"properties":{"id":"ARBOLEDA","nombre":"ARBOLEDA","divipola":"52051","departamento":"Nariño"},"type":"Polygon","arcs":[[19]],"id":"ARBOLEDA"},{"properties":{"id":"BELEN","nombre":"BELÉN","divipola":"52083","departamento":"Nariño"},"type":"Polygon","arcs":[[20]],"id":"BELEN"},{"properties":{"id":"BUESACO","nombre":"BUESACO","divipola":"52110","departamento":"Nariño"},"type":"Polygon","arcs":[[21]],"id":"BUESACO"},{"properties":{"id":"COLON","nombre":"COLÓN","divipola":"52203","departamento":"Nariño"},"type":"Polygon","arcs":[[22]],"id":"COLON"},{"properties":{"id":"NARINO","nombre":"NARIÑO","divipola":"52480","departamento":"Nariño"},"type":"Polygon","arcs":[[23]],"id":"NARINO"},{"properties":{"id":"OSPINA","nombre":"OSPINA","divipola":"52506","departamento":"Nariño"},"type":"Polygon","arcs":[[24]],"id":"OSPINA"},{"properties":{"id":"SAPUYES","nombre":"SAPUYES","divipola":"52720","departamento":"Nariño"},"type":"Polygon","arcs":[[25]],"id":"SAPUYES"},{"properties":{"id":"TAMINANGO","nombre":"TAMINANGO","divipola":"52786","departamento":"Nariño"},"type":"Polygon","arcs":[[26]],"id":"TAMINANGO"},{"properties":{"id":"TANGUA","nombre":"TANGUA","divipola":"52788","departamento":"Nariño"},"type":"Polygon","arcs":[[27]],"id":"TANGUA"},{"properties":{"id":"CHACHAGUI","nombre":"CHACHAGÜÍ","divipola":"52240","departamento":"Nariño"},"type":"Polygon","arcs":[[28]],"id":"CHACHAGUI"},{"properties":{"id":"EL PENOL","nombre":"EL PEÑOL","divipola":"52254","departamento":"Nariño"},"type":"Polygon","arcs":[[29]],"id":"EL PENOL"},{"properties":{"id":"EL TABLON DE GOMEZ","nombre":"EL TABLÓN DE GÓMEZ","divipola":"52258","departamento":"Nariño"},"type":"Polygon","arcs":[[30]],"id":"EL TABLON DE GOMEZ"},{"properties":{"id":"TUQUERRES","nombre":"TÚQUERRES","divipola":"52838","departamento":"Nariño"},"type":"Polygon","arcs":[[31]],"id":"TUQUERRES"},{"properties":{"id":"LINARES","nombre":"LINARES","divipola":"52411","departamento":"Nariño"},"type":"Polygon","arcs":[[32]],"id":"LINARES"},{"properties":{"id":"YACUANQUER","nombre":"YACUANQUER","divipola":"52885","departamento":"Nariño"},"type":"Polygon","arcs":[[33]],"id":"YACUANQUER"},{"properties":{"id":"MALLAMA","nombre":"MALLAMA","divipola":"52435","departamento":"Nariño"},"type":"Polygon","arcs":[[34]],"id":"MALLAMA"},{"properties":{"id":"LA CRUZ","nombre":"LA CRUZ","divipola":"52378","departamento":"Nariño"},"type":"Polygon","arcs":[[35]],"id":"LA CRUZ"},{"properties":{"id":"LA FLORIDA","nombre":"LA FLORIDA","divipola":"52381","departamento":"Nariño"},"type":"Polygon","arcs":[[36]],"id":"LA FLORIDA"},{"properties":{"id":"EL TAMBO","nombre":"EL TAMBO","divipola":"52260","departamento":"Nariño"},"type":"Polygon","arcs":[[37]],"id":"EL TAMBO"},{"properties":{"id":"FUNES","nombre":"FUNES","divipola":"52287","departamento":"Nariño"},"type":"Polygon","arcs":[[38]],"id":"FUNES"},{"properties":{"id":"GUACHUCAL","nombre":"GUACHUCAL","divipola":"52317","departamento":"Nariño"},"type":"Polygon","arcs":[[39]],"id":"GUACHUCAL"},{"properties":{"id":"LA UNION","nombre":"LA UNIÓN","divipola":"52399","departamento":"Nariño"},"type":"Polygon","arcs":[[40]],"id":"LA UNION"},{"properties":{"id":"GUAITARILLA","nombre":"GUAITARILLA","divipola":"52320","departamento":"Nariño"},"type":"Polygon","arcs":[[41]],"id":"GUAITARILLA"},{"properties":{"id":"LEIVA","nombre":"LEIVA","divipola":"52405","departamento":"Nariño"},"type":"Polygon","arcs":[[42]],"id":"LEIVA"},{"properties":{"id":"GUALMATAN","nombre":"GUALMATÁN","divipola":"52323","departamento":"Nariño"},"type":"Polygon","arcs":[[43]],"id":"GUALMATAN"},{"properties":{"id":"ILES","nombre":"ILES","divipola":"52352","departamento":"Nariño"},"type":"Polygon","arcs":[[44]],"id":"ILES"},{"properties":{"id":"IMUES","nombre":"IMUÉS","divipola":"52354","departamento":"Nariño"},"type":"Polygon","arcs":[[45]],"id":"IMUES"},{"properties":{"id":"IPIALES","nombre":"IPIALES","divipola":"52356","departamento":"Nariño"},"type":"Polygon","arcs":[[46]],"id":"IPIALES"},{"properties":{"id":"CUMBAL","nombre":"CUMBAL","divipola":"52227","departamento":"Nariño"},"type":"Polygon","arcs":[[47]],"id":"CUMBAL"},{"properties":{"id":"CUMBITARA","nombre":"CUMBITARA","divipola":"52233","departamento":"Nariño"},"type":"Polygon","arcs":[[48]],"id":"CUMBITARA"},{"properties":{"id":"EL ROSARIO","nombre":"EL ROSARIO","divipola":"52256","departamento":"Nariño"},"type":"Polygon","arcs":[[49]],"id":"EL ROSARIO"},{"properties":{"id":"LA LLANADA","nombre":"LA LLANADA","divipola":"52385","departamento":"Nariño"},"type":"Polygon","arcs":[[50]],"id":"LA LLANADA"},{"properties":{"id":"LOS ANDES","nombre":"LOS ANDES","divipola":"52418","departamento":"Nariño"},"type":"Polygon","arcs":[[51]],"id":"LOS ANDES"},{"properties":{"id":"POLICARPA","nombre":"POLICARPA","divipola":"52540","departamento":"Nariño"},"type":"Polygon","arcs":[[52]],"id":"POLICARPA"},{"properties":{"id":"RICAURTE","nombre":"RICAURTE","divipola":"52612","departamento":"Nariño"},"type":"Polygon","arcs":[[53]],"id":"RICAURTE"},{"properties":{"id":"BARBACOAS","nombre":"BARBACOAS","divipola":"52079","departamento":"Nariño"},"type":"Polygon","arcs":[[54]],"id":"BARBACOAS"},{"properties":{"id":"EL CHARCO","nombre":"EL CHARCO","divipola":"52250","departamento":"Nariño"},"type":"Polygon","arcs":[[55]],"id":"EL CHARCO"},{"properties":{"id":"LA TOLA","nombre":"LA TOLA","divipola":"52390","departamento":"Nariño"},"type":"Polygon","arcs":[[56]],"id":"LA TOLA"},{"properties":{"id":"MAGUI","nombre":"MAGÜÍ","divipola":"52427","departamento":"Nariño"},"type":"Polygon","arcs":[[57]],"id":"MAGUI"},{"properties":{"id":"MOSQUERA","nombre":"MOSQUERA","divipola":"52473","departamento":"Nariño"},"type":"Polygon","arcs":[[58]],"id":"MOSQUERA"},{"properties":{"id":"OLAYA HERRERA","nombre":"OLAYA HERRERA","divipola":"52490","departamento":"Nariño"},"type":"Polygon","arcs":[[59]],"id":"OLAYA HERRERA"},{"properties":{"id":"FRANCISCO PIZARRO","nombre":"FRANCISCO PIZARRO","divipola":"52520","departamento":"Nariño"},"type":"Polygon","arcs":[[60]],"id":"FRANCISCO PIZARRO"},{"properties":{"id":"ROBERTO PAYAN","nombre":"ROBERTO PAYÁN","divipola":"52621","departamento":"Nariño"},"type":"Polygon","arcs":[[61]],"id":"ROBERTO PAYAN"},{"properties":{"id":"SANTA BARBARA","nombre":"SANTA BÁRBARA","divipola":"52696","departamento":"Nariño"},"type":"Polygon","arcs":[[62]],"id":"SANTA BARBARA"},{"properties":{"id":"SAN ANDRES DE TUMACO","nombre":"SAN ANDRÉS DE TUMACO","divipola":"52835","departamento":"Nariño"},"type":"MultiPolygon","arcs":[[[63]],[[64]]],"id":"SAN ANDRES DE TUMACO"}],"type":"GeometryCollection"}},"bbox":[-79.00906988199051,0.38320825632640343,-76.85293659205985,2.658111282679643],"transform":{"scale":[2.1561548514791797e-05,2.274925775610996e-05],"translate":[-79.00906988199051,0.38320825632640343]},"arcs":[[[71521,43081],[661,-2478],[3582,-3341],[-6061,1450],[1818,4369]],[[96349,49123],[-6115,-257],[34,2616],[2370,797],[3711,-3156]],[[82165,56042],[4262,-5739],[-1770,-3499],[-5502,3064],[3010,6174]],[[84514,10892],[-13803,5548],[-7320,-1252],[6707,4395],[14416,-8691]],[[97799,56200],[-2839,-1450],[-5026,1977],[6211,2432],[1654,-2959]],[[66584,35444],[-2261,1423],[613,3756],[981,-1950],[667,-3229]],[[90268,51482],[-885,-2959],[-3058,1892],[1424,2629],[2519,-1562]],[[85794,15854],[-824,-3196],[-16908,9719],[14477,-283],[3255,-6240]],[[64698,40168],[-4671,-9040],[-5809,16328],[8349,-5034],[2131,-2254]],[[65570,26792],[1273,-4533],[-5107,-1200],[82,4488],[3752,1245]],[[67681,46158],[-1097,-10714],[-14504,13369],[3085,4422],[12516,-7077]],[[75764,37262],[-4822,-3274],[-1348,4243],[2887,125],[3283,-1094]],[[71358,24848],[-3146,-2306],[-1737,2649],[2758,-508],[2125,165]],[[68062,22377],[11277,-4079],[5175,-7406],[-16752,8520],[300,2965]],[[78801,42633],[12672,-13449],[-3752,-9680],[-9281,5917],[361,17212]],[[92284,48919],[-2329,-2656],[-1893,323],[1791,3183],[2431,-850]],[[61818,25547],[381,-4534],[-763,-1041],[-1954,3519],[2336,2056]],[[59557,23148],[1518,-2082],[361,-1502],[-3439,454],[1560,3130]],[[69798,41058],[143,-4316],[-1791,-1542],[-1259,1799],[2907,4059]],[[89383,48523],[-1321,-1937],[-3405,218],[1593,3479],[3133,-1760]],[[92502,54236],[136,-1957],[-3139,-151],[265,2899],[2738,-791]],[[84657,46804],[11624,-7143],[-2227,-2754],[-11787,1607],[2390,8290]],[[93877,55989],[-3153,-3097],[-2295,2181],[2377,1562],[3071,-646]],[[76540,36834],[-790,3743],[1321,303],[776,-1245],[-1307,-2801]],[[70132,28182],[-3548,-1568],[-1185,297],[1839,3354],[2894,-2083]],[[60742,31220],[5502,-1680],[-674,-2748],[-6177,382],[1349,4046]],[[80667,56253],[292,-5443],[-5849,-343],[1614,6043],[3943,-257]],[[78440,25421],[-5114,4086],[3085,6503],[3547,-6628],[-1518,-3961]],[[79155,49868],[3105,-2867],[-661,-7189],[-2812,1582],[368,8474]],[[75307,50342],[-1722,-3690],[-2806,448],[2138,6148],[2390,-2906]],[[96349,49123],[1273,-7900],[-1341,-1562],[-7954,6635],[8022,2827]],[[66332,34633],[906,-4368],[-6333,6],[3745,9561],[1682,-5199]],[[70779,47100],[20,-4388],[-2594,-2201],[-1233,4685],[3807,1904]],[[73326,29507],[-2384,4481],[4651,1568],[675,-2471],[-2942,-3578]],[[59693,31424],[-10657,270],[4889,12072],[164,-6023],[5604,-6319]],[[99999,55067],[-266,-4988],[-6809,1528],[953,4382],[6122,-922]],[[78801,42633],[-2261,-5799],[-5019,6247],[7811,2609],[-531,-3057]],[[78236,49103],[-641,-5396],[-6884,-336],[68,3729],[7457,2003]],[[73326,29507],[12890,-9344],[-422,-4309],[-14525,7525],[2057,6128]],[[64718,26865],[-5161,-3717],[-4910,2366],[3092,3347],[6979,-1996]],[[86516,56905],[3752,-5423],[-3943,-1067],[-4160,5627],[4351,863]],[[70942,33988],[-544,-2050],[-4379,158],[804,4152],[4119,-2260]],[[83758,68963],[-4256,-5291],[-5849,3302],[5202,9607],[4903,-7618]],[[66475,25191],[1124,-2320],[-1110,-402],[-1648,2129],[1634,593]],[[71174,28077],[184,-3229],[-5543,1160],[-245,784],[5604,1285]],[[72420,29540],[-2288,-1358],[-3384,3018],[4242,1061],[1430,-2721]],[[68212,22542],[-4821,-7354],[23854,-5587],[1416,-9601],[-19932,751],[-7912,14997],[7395,6794]],[[56132,27062],[-3160,-8671],[-15866,8928],[13557,3242],[5469,-3499]],[[64930,65458],[-470,-2866],[6714,-8949],[-8580,4270],[2336,7545]],[[74810,70288],[4692,-6616],[-2424,-7255],[-15056,10405],[12788,3466]],[[68375,46817],[-11385,3683],[-3943,3756],[12400,-1700],[2928,-5739]],[[60136,62947],[12359,-10002],[-3936,-6168],[-19925,10497],[11502,5673]],[[76724,56510],[-5734,-3196],[-6060,12144],[8689,-2122],[3105,-6826]],[[50663,30561],[-17357,2623],[19319,15445],[-4781,-12777],[2819,-5291]],[[53047,54256],[-7586,-16117],[-22302,-2715],[13592,24776],[16296,-5944]],[[41559,99366],[12986,-26199],[18093,10444],[6129,-13949],[-23582,-2273],[-16861,8533],[3235,23444]],[[38324,75922],[-1178,-3308],[-4773,27385],[5965,-3459],[-14,-20618]],[[61566,66479],[-23718,-8645],[-3970,12632],[14865,5304],[12823,-9291]],[[31658,99933],[-4638,-16579],[1744,-3907],[-8294,10062],[11188,10424]],[[37146,72614],[-10112,10444],[4624,16875],[5720,-9119],[-232,-18200]],[[25005,82056],[-2847,-15148],[-3050,-481],[-4801,14068],[10698,1561]],[[28954,79572],[7307,-20585],[-7511,-10411],[-6755,21587],[6959,9409]],[[50125,99221],[3691,-19748],[12326,-7301],[-16255,5390],[238,21659]],[[34886,54711],[-11727,-19287],[-23159,20223],[22785,16941],[12101,-17877]],[[20647,90095],[2928,-6833],[-6136,-5357],[-2962,3275],[6170,8915]]]}